DOT-1                   
1 44399U 19038P   22163.89143923  .00003899  00000+0  21088-3 0  9993
2 44399  97.6388 132.5118 0023942 150.2910 209.9687 15.15034660162259
SOKRAT                  
1 44404U 19038U   22163.87229119  .00007321  00000+0  37083-3 0  9996
2 44404  97.6336 133.2688 0021004 145.1706 215.0906 15.17100610162323
LUCKY-7                 
1 44406U 19038W   22163.89953580  .00004402  00000+0  23465-3 0  9992
2 44406  97.6377 132.8789 0023969 142.5440 217.7468 15.15475931162270
D-STAR ONE (EXOCONNECT) 
1 44410U 19038AA  22163.91223587  .00011880  00000+0  55743-3 0  9999
2 44410  97.6291 134.1585 0020387 139.4137 220.8622 15.19626735162404
NARSSCUBE-2             
1 44415U 19022E   22163.30939089  .00005876  00000+0  18327-3 0  9996
2 44415  51.6382 142.6101 0011794  39.8142 320.3704 15.34626047159326
DUCHIFAT-3              
1 44854U 19089C   22164.06625609  .00002237  00000+0  17776-3 0  9995
2 44854  36.9638 126.3526 0007754 195.7125 253.5872 15.01040984137274
OPS-SAT                 
1 44878U 19092F   22163.78438607  .00005649  00000+0  26524-3 0  9994
2 44878  97.4795 347.7754 0012144   3.6630 356.4692 15.19966872137483
FLORIPASAT-1            
1 44885U 19093G   22164.02690837  .00001237  00000+0  15814-3 0  9995
2 44885  97.8964 244.5670 0014049 201.5701 158.4915 14.83119973134193
HUSKYSAT-1 (HO-107)     
1 45119U 19071J   22163.19720704  .00017681  00000+0  38585-3 0  9996
2 45119  51.6386  85.2297 0010181 141.8057 218.3652 15.44247344132552
BY70-2                  
1 45857U 20042B   22164.23396499  .00004612  00000+0  61958-3 0  9991
2 45857  97.9541 241.1125 0012377 128.1431 232.0924 14.79734918104833
SALSAT                  
1 46495U 20068K   22163.84009381  .00002007  00000+0  14759-3 0  9998
2 46495  97.7304 105.1384 0014973 295.9857  63.9826 15.04495209 93499
NETSAT-4                
1 46504U 20068U   22163.78363537  .00002574  00000+0  19366-3 0  9996
2 46504  97.7246 103.5810 0012520 346.7243  13.3652 15.03393042 93342
NETSAT-3                
1 46505U 20068V   22163.79876986  .00001177  00000+0  91151-4 0  9996
2 46505  97.7263 103.5232 0011987 359.9434   0.1788 15.03342870 93352
NETSAT-1                
1 46506U 20068W   22163.81484803  .00001643  00000+0  12563-3 0  9990
2 46506  97.7262 103.4707 0010092  13.8650 346.2850 15.03302761 93359
NETSAT-2                
1 46507U 20068X   22163.82432517  .00001931  00000+0  14691-3 0  9991
2 46507  97.7256 103.4717 0008995  20.8041 339.3548 15.03280927 93306
BY70-3                  
1 46839U 20079N   22164.15671534  .00016402  00000+0  38916-3 0  9997
2 46839  97.1978 236.3065 0004416   4.7213  79.4570 15.41778661 89588
SPOC                    
1 46921U 98067RR  22163.66953353  .00473392  11032-3  81587-3 0  9996
2 46921  51.6243 312.2833 0010505 301.0682  58.9296 16.01682322 91255
NEUTRON-1               
1 46923U 98067RT  22163.84121581  .00525140  13411-3  91519-3 0  9996
2 46923  51.6250 311.9456 0010422 301.6476  58.3517 16.01488240 91294
DESCENT                 
1 46927U 98067RX  22163.64333681  .00837331  40229-3  84732-3 0  9998
2 46927  51.6241 311.3300 0012781 305.3261  54.6557 16.10180088 91206
UVSQ-SAT                
1 47438U 21006AB  22163.72471352  .00004667  00000+0  24872-3 0  9998
2 47438  97.4374 222.8317 0010224 293.4737  66.5421 15.15631769 76563
SOMP2B                  
1 47445U 21006AJ  22163.72198048  .00004112  00000+0  22150-3 0  9996
2 47445  97.4348 222.4994 0009932 298.4508  61.5723 15.15321123 76553
RSP-01                  
1 47925U 98067SB  22159.97733955  .03925807  12084-4  94924-3 0  9998
2 47925  51.6203 339.3535 0014703 285.6985  74.2415 16.28293158 70538
TSURU                   
1 47927U 98067SD  22164.14840595  .00338848  55102-4  95432-3 0  9997
2 47927  51.6304 323.8210 0008907 282.1048  77.8961 15.92916479 71119
MAYA-2                  
1 47929U 98067SF  22164.15815295  .00332160  52973-4  96956-3 0  9995
2 47929  51.6295 323.8892 0008711 285.4908  74.5136 15.92240677 71073
GUARANISAT-1            
1 47931U 98067SH  22163.81891187  .00337376  54662-4  95466-3 0  9990
2 47931  51.6280 325.3834 0008829 285.9126  74.0908 15.92828959 71066
DIY-1 (ARDUIQUBE)       
1 47963U 21022AH  22164.18079837  .00014787  00000+0  82940-3 0  9996
2 47963  97.5340  65.5905 0018436 140.3966 219.8615 15.13320715 66305
